STARLINK-32457          
1 61717U 24196L   25133.07847202 -.00002036  00000+0 -56654-4 0  9990
2 61717  53.1608  57.5050 0001148  64.8064 295.3055 15.30181669 31161
STARLINK-32591          
1 61718U 24196M   25133.12942169  .00002895  00000+0  82383-4 0  9994
2 61718  53.1621  46.4292 0001228  87.1802 272.9343 15.39598694 31327
STARLINK-32344          
1 61719U 24196N   25133.17333311  .00000824  00000+0  39961-4 0  9997
2 61719  53.1610  57.3888 0001296  95.0726 265.0422 15.30187324 31164
STARLINK-32322          
1 61720U 24196P   25132.53283733  .00001061  00000+0  47976-4 0  9999
2 61720  53.1603  60.5002 0001424 119.0724 241.0420 15.30187493 31068
STARLINK-32469          
1 61721U 24196Q   25133.07213121 -.00000428  00000+0 -23158-5 0  9999
2 61721  53.1602  57.4627 0001182  53.2402 306.8707 15.30189581 30897
STARLINK-32438          
1 61722U 24196R   25133.11434882  .00001699  00000+0  69493-4 0  9994
2 61722  53.1603  57.7313 0001322  82.7368 277.3783 15.30191002 31155
STARLINK-32540          
1 61723U 24196S   25133.42566026  .00006705  00000+0  17726-3 0  9999
2 61723  53.1638  24.3160 0000970  74.8979 285.2133 15.39653760 31499
STARLINK-32528          
1 61724U 24196T   25133.18915692 -.00000301  00000+0  19506-5 0  9997
2 61724  53.1596  57.4887 0000993  85.2024 274.9090 15.30182409 30841
STARLINK-32573          
1 61725U 24196U   25133.17016597 -.00001604  00000+0 -42065-4 0  9996
2 61725  53.1611  57.3660 0001295  90.5841 269.5308 15.30183952 31173
STARLINK-32478          
1 61726U 24196V   25133.48934772 -.00001076  00000+0 -24212-4 0  9992
2 61726  53.1595  55.8054 0000854 113.9415 246.1676 15.30189063 31079
STARLINK-32511          
1 61727U 24196W   25133.15644426 -.00001025  00000+0 -22482-4 0  9992
2 61727  53.1597  57.2807 0001189  94.6181 265.4956 15.30188530 31175
STARLINK-32475          
1 61728U 24196X   25133.21542458 -.00002035  00000+0 -56610-4 0  9994
2 61728  53.1603  56.9364 0001014  73.1387 286.9725 15.30202748 31018
STARLINK-32442          
1 61729U 24196Y   25133.08796676 -.00001017  00000+0 -22216-4 0  9997
2 61729  53.1610  57.5642 0001130  92.3063 267.8067 15.30182517 31014
STARLINK-32362          
1 61845U 24202A   25133.04543178  .00003276  00000+0  85716-4 0  9998
2 61845  43.0043 129.3333 0001540 261.7739  98.2943 15.40677735 30013
STARLINK-32472          
1 61846U 24202B   25133.36731235  .00001302  00000+0  38414-4 0  9998
2 61846  43.0011 127.4457 0001597 278.9386  81.1290 15.40710343 30069
STARLINK-32352          
1 61847U 24202C   25133.04095004  .00001854  00000+0  51666-4 0  9997
2 61847  43.0031 129.2972 0000962 259.4282 100.6466 15.40682049 30005
STARLINK-32427          
1 61848U 24202D   25133.42767795  .00000796  00000+0  26329-4 0  9995
2 61848  43.0030 127.0405 0001441 278.9313  81.1380 15.40687639 30060
STARLINK-32346          
1 61849U 24202E   25133.03421940 -.00005501  00000+0 -12439-3 0  9999
2 61849  43.0033 129.2464 0001912 285.6608  74.4038 15.40726128 29912
STARLINK-32330          
1 61850U 24202F   25133.05479454  .00002707  00000+0  10784-3 0  9990
2 61850  43.0054 135.4540 0001554 276.5211  83.5464 15.27583218 29934
STARLINK-32379          
1 61851U 24202G   25133.36060410 -.00000341  00000+0 -90876-6 0  9990
2 61851  43.0001 127.3923 0001595 257.3514 102.7165 15.40699770 29972
STARLINK-32433          
1 61852U 24202H   25133.05866167  .00002313  00000+0  93563-4 0  9993
2 61852  43.0035 135.4816 0001276 275.0588  85.0118 15.27573687 29935
STARLINK-32394          
1 61853U 24202J   25133.06123371  .00000312  00000+0  20869-4 0  9994
2 61853  43.0019 135.4972 0001212 267.2705  92.8008 15.27571997 29931
STARLINK-32486          
1 61854U 24202K   25133.06508684  .00000823  00000+0  39439-4 0  9999
2 61854  43.0023 135.5290 0001000 261.1325  98.9413 15.27575857 29933
STARLINK-32391          
1 61855U 24202L   25132.74200860  .00001471  00000+0  62960-4 0  9994
2 61855  43.0011 137.4050 0001303 271.0789  88.9914 15.27577887 29307
STARLINK-32483          
1 61856U 24202M   25133.46511409 -.00000225  00000+0  13362-5 0  9999
2 61856  43.0018 133.3709 0001261 260.1126  99.9584 15.27577711 29994
STARLINK-32451          
1 61857U 24202N   25132.49202792  .00000272  00000+0  19406-4 0  9999
2 61857  42.9996 138.9670 0000721 253.1344 106.9429 15.27578002 29586
STARLINK-32556          
1 61858U 24202P   25133.33819704 -.00000045  00000+0  78793-5 0  9995
2 61858  43.0021 134.1388 0001297 276.7788  83.2916 15.27577735 29977
STARLINK-32466          
1 61859U 24202Q   25133.08307662  .00000329  00000+0  21487-4 0  9994
2 61859  43.0003 135.6622 0000865 251.3770 108.6988 15.27575884 29935
STARLINK-32316          
1 61860U 24202R   25133.45917856  .00000206  00000+0  17020-4 0  9991
2 61860  43.0008 129.8658 0001256 258.9741 101.0969 15.27574519 29976
STARLINK-32415          
1 61861U 24202S   25133.48309767  .00002397  00000+0  96607-4 0  9992
2 61861  43.0002 133.5058 0001118 282.2847  77.7879 15.27580833 29684
STARLINK-32393          
1 61862U 24202T   25133.34849690 -.00001958  00000+0 -61671-4 0  9999
2 61862  43.0006 134.2154 0001272 273.8493  86.2213 15.27562090 29826
STARLINK-32324          
1 61863U 24202U   25133.36004406 -.00000282  00000+0 -71554-6 0  9992
2 61863  43.0014 134.3044 0000917 254.2925 105.7826 15.27573011 29971
STARLINK-32318          
1 61864U 24202V   25133.03953414  .00000563  00000+0  29977-4 0  9999
2 61864  42.9997 136.1986 0000786 275.6041  84.4721 15.27576304 29936
STARLINK-32401          
1 61865U 24202W   25132.71645424  .00000386  00000+0  23561-4 0  9999
2 61865  43.0010 138.0724 0000865 274.0072  86.0681 15.27578344 29301
STARLINK-32588          
1 61866U 24202X   25133.03696400 -.00000175  00000+0  31425-5 0  9992
2 61866  42.9990 136.1789 0000989 274.6205  85.4534 15.27574735 29937
STARLINK-32569          
1 61867U 24202Y   25132.72031038 -.00000190  00000+0  26326-5 0  9999
2 61867  43.0022 138.1014 0001032 274.3900  85.6834 15.27574831 29301
STARLINK-11402 [DTC]    
1 61874U 24204A   25133.44837974 -.00000649  00000+0 -48886-6 0  9998
2 61874  53.1597  36.7106 0001697  96.0657 264.0554 15.69720224 29754
STARLINK-11316 [DTC]    
1 61875U 24204B   25132.88014887  .00000364  00000+0  78651-5 0  9990
2 61875  53.1594  38.8126 0001037  73.1920 286.9211 15.69706775 29673
STARLINK-11401 [DTC]    
1 61876U 24204C   25132.93411108  .00000194  00000+0  64595-5 0  9997
2 61876  53.1592  39.1668 0001164  88.0365 272.0787 15.69707723 29674
STARLINK-11321 [DTC]    
1 61877U 24204D   25132.99287379  .00000503  00000+0  90100-5 0  9990
2 61877  53.1588  38.8223 0001256 106.0705 254.0451 15.69706967 29671
STARLINK-11314 [DTC]    
1 61878U 24204E   25133.43365076  .00000769  00000+0  11199-4 0  9996
2 61878  53.1584  36.5931 0000761  82.5273 277.5831 15.69709647 29756
STARLINK-11324 [DTC]    
1 61879U 24204F   25133.11040695 -.00000957  00000+0 -30448-5 0  9999
2 61879  53.1595  38.1230 0001061 110.1366 249.9766 15.69699786 29701
STARLINK-11328 [DTC]    
1 61880U 24204G   25133.04183009 -.00001657  00000+0 -88228-5 0  9997
2 61880  53.1587  38.4147 0001263  52.2993 307.8140 15.69705523 29695
STARLINK-11329 [DTC]    
1 61881U 24204H   25133.16426523 -.00000134  00000+0  37524-5 0  9993
2 61881  53.1596  37.7486 0001128  70.3942 289.7197 15.69698396 29711
STARLINK-11398 [DTC]    
1 61882U 24204J   25133.03202216  .00000016  00000+0  49905-5 0  9995
2 61882  53.1591  38.3430 0000979  61.9703 298.1414 15.69702841 29691
STARLINK-11383 [DTC]    
1 61883U 24204K   25132.89486646 -.00000530  00000+0  48195-6 0  9993
2 61883  53.1589  38.9074 0000951 102.3637 257.7487 15.69705357 29679
STARLINK-11359 [DTC]    
1 61884U 24204L   25133.02708586  .00004394  00000+0  41050-4 0  9992
2 61884  53.1603  38.3076 0001189  60.9148 299.1989 15.69743091 29699
STARLINK-11301 [DTC]    
1 61885U 24204M   25133.14463916 -.00000642  00000+0 -44194-6 0  9999
2 61885  53.1583  37.6143 0000941  79.4482 280.6642 15.69705833 29711
STARLINK-11351 [DTC]    
1 61886U 24204N   25132.88505514 -.00000556  00000+0  26627-6 0  9995
2 61886  53.1587  38.8400 0001091  73.9076 286.2062 15.69706662 29674
STARLINK-32410          
1 61887U 24204P   25133.14597897 -.00000017  00000+0  11550-4 0  9990
2 61887  53.1603  83.0273 0001653  69.6309 290.4869 15.30190078 29082
STARLINK-32377          
1 61888U 24204Q   25133.26921803  .00001406  00000+0  59605-4 0  9997
2 61888  53.1607  82.3723 0001304  84.8918 275.2231 15.30191629 29095
STARLINK-32292          
1 61889U 24204R   25133.09016231  .00000696  00000+0  35642-4 0  9994
2 61889  53.1611  83.3864 0001194  80.7297 279.3839 15.30188684 29063
STARLINK-32501          
1 61890U 24204S   25133.17130867 -.00000269  00000+0  30428-5 0  9992
2 61890  53.1594  83.1771 0001254 103.0027 257.1114 15.30183850 29078
STARLINK-32383          
1 61891U 24204T   25133.09966191 -.00000928  00000+0 -19224-4 0  9994
2 61891  53.1595  83.4425 0001189  97.1771 262.9365 15.30184531 29074
STARLINK-32239          
1 61892U 24204U   25133.17869351 -.00000379  00000+0 -67032-6 0  9996
2 61892  53.1595  83.2312 0001325  96.4608 263.6543 15.30187678 29083
STARLINK-32489          
1 61893U 24204V   25133.12909437  .00000414  00000+0  26113-4 0  9993
2 61893  53.1598  82.9231 0001262  86.2980 273.8166 15.30185814 29076
STARLINK-32303          
1 61912U 24207A   25133.25002315 -.00846728  00000+0 -32286-1 0  9994
2 61912  43.0002 178.4209 0001557 262.7938 120.4960 15.28665583 29356
STARLINK-32434          
1 61913U 24207B   25132.91668981 -.00000439  00000+0 -64198-5 0  9996
2 61913  42.9998 180.6633 0001822 276.2561 284.2636 15.27603560  6060
STARLINK-32460          
1 61914U 24207C   25133.48166899 -.00340048  00000+0 -11041-1 0  9999
2 61914  42.9996 176.7740 0001120 357.0792   3.0055 15.32643479 29391
